CCSDS_OEM_VERS = 1.0
CREATION_DATE  = 2017-05-11T11:01:59
ORIGINATOR     = GMAT USER

META_START
OBJECT_NAME          = MOPSSat_alt_35785_km_RAAN_0_082
OBJECT_ID            = SatId
CENTER_NAME          = Earth
REF_FRAME            = EME2000
TIME_SYSTEM          = UTC
START_TIME           = 2017-01-01T00:00:00.000
USEABLE_START_TIME   = 2017-01-01T00:00:00.000
USEABLE_STOP_TIME    = 2017-01-02T00:00:00.000
STOP_TIME            = 2017-01-02T00:00:00.000
INTERPOLATION        = Lagrange
INTERPOLATION_DEGREE = 7 
META_STOP


                                                                                   

2017-01-01T08:42:30.000  -2.831606637143033e+04   3.161261766474046e+04   4.336387512513829e-01  -2.290611234953226e+00  -2.020900686484693e+00   5.179098639916342e-05
2017-01-01T08:42:40.000  -2.833896509886029e+04   3.159240041772725e+04   4.341567374275925e-01  -2.289134102152228e+00  -2.022548576718306e+00   5.180624449198036e-05
2017-01-01T08:42:50.000  -2.836184904934357e+04   3.157216669701440e+04   4.346748760280804e-01  -2.287655799615529e+00  -2.024195385546916e+00   5.182147020737414e-05
2017-01-01T08:43:00.000  -2.838471821118647e+04   3.155191651341967e+04   4.351931667289579e-01  -2.286176328136941e+00  -2.025841112163552e+00   5.183666352184936e-05
2017-01-01T08:43:10.000  -2.840757257269087e+04   3.153164987777901e+04   4.357116092058347e-01  -2.284695688511541e+00  -2.027485755760931e+00   5.185182441192430e-05
2017-01-01T08:43:20.000  -2.843041212193641e+04   3.151136680114364e+04   4.362302031288137e-01  -2.283213881550058e+00  -2.029129315515798e+00   5.186695285397824e-05
2017-01-01T08:43:30.000  -2.845323684707465e+04   3.149106729451541e+04   4.367489481692246e-01  -2.281730908059556e+00  -2.030771790610083e+00   5.188204882445500e-05
2017-01-01T08:43:40.000  -2.847604673621291e+04   3.147075136895086e+04   4.372678439969749e-01  -2.280246768851018e+00  -2.032413180222549e+00   5.189711229978257e-05
2017-01-01T08:43:50.000  -2.849884177792920e+04   3.145041903510275e+04   4.377868902922577e-01  -2.278761464705871e+00  -2.034053483565838e+00   5.191214325672449e-05
2017-01-01T08:44:00.000  -2.852162196075713e+04   3.143007030367828e+04   4.383060867338454e-01  -2.277274996409451e+00  -2.035692699849415e+00   5.192714167202819e-05
2017-01-01T08:44:10.000  -2.854438727330271e+04   3.140970518533585e+04   4.388254330017338e-01  -2.275787364743456e+00  -2.037330828287965e+00   5.194210752250666e-05
2017-01-01T08:44:20.000  -2.856713770394742e+04   3.138932369094646e+04   4.393449287704371e-01  -2.274298570505056e+00  -2.038967868080029e+00   5.195704078482912e-05
2017-01-01T08:44:30.000  -2.858987324106922e+04   3.136892583140025e+04   4.398645737139602e-01  -2.272808614492754e+00  -2.040603818423908e+00   5.197194143568044e-05
2017-01-01T08:44:40.000  -2.861259387304177e+04   3.134851161760559e+04   4.403843675058070e-01  -2.271317497506312e+00  -2.042238678517604e+00   5.198680945175549e-05
2017-01-01T08:44:50.000  -2.863529958801788e+04   3.132808106068755e+04   4.409043098139633e-01  -2.269825220361255e+00  -2.043872447543245e+00   5.200164480963127e-05
2017-01-01T08:45:00.000  -2.865799037422196e+04   3.130763417172137e+04   4.414244003076480e-01  -2.268331783869403e+00  -2.045505124688121e+00   5.201644748594466e-05
2017-01-01T08:45:10.000  -2.868066621983455e+04   3.128717096183726e+04   4.419446386546553e-01  -2.266837188846519e+00  -2.047136709136381e+00   5.203121745732142e-05
2017-01-01T08:45:20.000  -2.870332711350416e+04   3.126669144175859e+04   4.424650245330953e-01  -2.265341436078591e+00  -2.048767200105853e+00   5.204595470069899e-05
2017-01-01T08:45:30.000  -2.872597304383532e+04   3.124619562226350e+04   4.429855576196560e-01  -2.263844526355537e+00  -2.050396596811216e+00   5.206065919300349e-05
2017-01-01T08:45:40.000  -2.874860399950458e+04   3.122568351408082e+04   4.435062375922538e-01  -2.262346460463606e+00  -2.052024898472345e+00   5.207533091122192e-05
2017-01-01T08:45:50.000  -2.877121996896538e+04   3.120515512815344e+04   4.440270641233118e-01  -2.260847239204621e+00  -2.053652104293071e+00   5.208996983221835e-05
2017-01-01T08:46:00.000  -2.879382094066776e+04   3.118461047544343e+04   4.445480368847451e-01  -2.259346863381733e+00  -2.055278213476992e+00   5.210457593286898e-05
2017-01-01T08:46:10.000  -2.881640690305754e+04   3.116404956693111e+04   4.450691555479692e-01  -2.257845333799364e+00  -2.056903225227415e+00   5.211914919006396e-05
2017-01-01T08:46:20.000  -2.883897784436121e+04   3.114347241381486e+04   4.455904197788698e-01  -2.256342651277793e+00  -2.058527138731876e+00   5.213368958056223e-05
2017-01-01T08:46:30.000  -2.886153375287638e+04   3.112287902724289e+04   4.461118292445715e-01  -2.254838816633562e+00  -2.060149953183050e+00   5.214819708118522e-05
2017-01-01T08:46:40.000  -2.888407461685508e+04   3.110226941842057e+04   4.466333836107224e-01  -2.253333830687325e+00  -2.061771667770336e+00   5.216267166873941e-05
2017-01-01T08:46:50.000  -2.890660042502092e+04   3.108164359813762e+04   4.471550825534616e-01  -2.251827694229318e+00  -2.063392281717071e+00   5.217711332035539e-05
2017-01-01T08:47:00.000  -2.892911116605032e+04   3.106100157724201e+04   4.476769257474243e-01  -2.250320408053962e+00  -2.065011794243217e+00   5.219152201314797e-05
2017-01-01T08:47:10.000  -2.895160682870671e+04   3.104034336651779e+04   4.481989128688358e-01  -2.248811972950945e+00  -2.066630204575000e+00   5.220589772430481e-05
2017-01-01T08:47:20.000  -2.897408740147952e+04   3.101966897701307e+04   4.487210435871948e-01  -2.247302389729173e+00  -2.068247511918949e+00   5.222024043084859e-05
2017-01-01T08:47:30.000  -2.899655287288236e+04   3.099897841976966e+04   4.492433175721338e-01  -2.245791659197021e+00  -2.069863715483339e+00   5.223455010983440e-05
2017-01-01T08:47:40.000  -2.901900323138635e+04   3.097827170588330e+04   4.497657344918904e-01  -2.244279782166744e+00  -2.071478814473403e+00   5.224882673830524e-05
2017-01-01T08:47:50.000  -2.904143846543924e+04   3.095754884648839e+04   4.502882940137125e-01  -2.242766759453339e+00  -2.073092808092704e+00   5.226307029330773e-05
2017-01-01T08:48:00.000  -2.906385856348689e+04   3.093680985273629e+04   4.508109958043885e-01  -2.241252591872991e+00  -2.074705695544679e+00   5.227728075190285e-05
2017-01-01T08:48:10.000  -2.908626351398142e+04   3.091605473578803e+04   4.513338395304344e-01  -2.239737280242511e+00  -2.076317476033228e+00   5.229145809117124e-05
2017-01-01T08:48:20.000  -2.910865330546187e+04   3.089528350674057e+04   4.518568248599594e-01  -2.238220825373971e+00  -2.077928148768512e+00   5.230560228826675e-05
2017-01-01T08:48:30.000  -2.913102792650017e+04   3.087449617667566e+04   4.523799514614257e-01  -2.236703228078264e+00  -2.079537712963074e+00   5.231971332037880e-05
2017-01-01T08:48:40.000  -2.915338736570124e+04   3.085369275665993e+04   4.529032190036463e-01  -2.235184489165114e+00  -2.081146167831837e+00   5.233379116473438e-05
2017-01-01T08:48:50.000  -2.917573161175579e+04   3.083287325769466e+04   4.534266271570401e-01  -2.233664609439411e+00  -2.082753512595909e+00   5.234783579862418e-05
2017-01-01T08:49:00.000  -2.919806065336071e+04   3.081203769079070e+04   4.539501755917543e-01  -2.232143589706671e+00  -2.084359746476849e+00   5.236184719936004e-05
2017-01-01T08:49:10.000  -2.922037447921123e+04   3.079118606697605e+04   4.544738639774770e-01  -2.230621430773601e+00  -2.085964868696110e+00   5.237582534426715e-05
2017-01-01T08:49:20.000  -2.924267307797768e+04   3.077031839731560e+04   4.549976919829238e-01  -2.229098133449536e+00  -2.087568878473365e+00   5.238977021067784e-05
2017-01-01T08:49:30.000  -2.926495643828886e+04   3.074943469292909e+04   4.555216592754076e-01  -2.227573698547743e+00  -2.089171775025305e+00   5.240368177591291e-05
2017-01-01T08:49:40.000  -2.928722454879708e+04   3.072853496492907e+04   4.560457655223861e-01  -2.226048126880906e+00  -2.090773557570326e+00   5.241756001732540e-05
2017-01-01T08:49:50.000  -2.930947739788632e+04   3.070761922469798e+04   4.565700103845407e-01  -2.224521419281335e+00  -2.092374225307532e+00   5.243140491211029e-05
2017-01-01T08:50:00.000  -2.933171497402615e+04   3.068668748355279e+04   4.570943935241605e-01  -2.222993576576500e+00  -2.093973777442200e+00   5.244521643753336e-05
2017-01-01T08:50:10.000  -2.935393726564018e+04   3.066573975286958e+04   4.576189146020252e-01  -2.221464599598113e+00  -2.095572213176297e+00   5.245899457084604e-05
2017-01-01T08:50:20.000  -2.937614426161705e+04   3.064477604360174e+04   4.581435732894705e-01  -2.219934489146973e+00  -2.097169531745267e+00   5.247273928961324e-05
2017-01-01T08:50:30.000  -2.939833595080057e+04   3.062379636676040e+04   4.586683692563549e-01  -2.218403246028022e+00  -2.098765732381325e+00   5.248645057138594e-05
2017-01-01T08:50:40.000  -2.942051232210541e+04   3.060280073330579e+04   4.591933021737854e-01  -2.216870871042425e+00  -2.100360814321801e+00   5.250012839377752e-05
2017-01-01T08:50:50.000  -2.944267336422784e+04   3.058178915441700e+04   4.597183717073364e-01  -2.215337365007255e+00  -2.101954776788321e+00   5.251377273427138e-05
2017-01-01T08:51:00.000  -2.946481906586117e+04   3.056076164129236e+04   4.602435775220799e-01  -2.213802728740923e+00  -2.103547619002308e+00   5.252738357036775e-05
2017-01-01T08:51:10.000  -2.948694941569483e+04   3.053971820514850e+04   4.607689192825907e-01  -2.212266963063112e+00  -2.105139340184917e+00   5.254096087957804e-05
2017-01-01T08:51:20.000  -2.950906440220370e+04   3.051865885742487e+04   4.612943966478795e-01  -2.210730068809692e+00  -2.106729939541880e+00   5.255450463930919e-05
2017-01-01T08:51:30.000  -2.953116401393277e+04   3.049758360950911e+04   4.618200092782127e-01  -2.209192046812692e+00  -2.108319416283982e+00   5.256801482702482e-05
